IRIDIUM 144             
1 43249U 18030A   26018.92596445  .00000205  00000+0  66187-4 0  9993
2 43249  86.3985 352.7970 0002192  82.7974 277.3471 14.34218457408740
IRIDIUM 149             
1 43250U 18030B   26018.93230763  .00000065  00000+0  16026-4 0  9995
2 43250  86.3985 352.7630 0002205  86.6478 273.4970 14.34218193408762
IRIDIUM 157             
1 43251U 18030C   26018.95133057  .00000216  00000+0  69967-4 0  9996
2 43251  86.3986 352.8049 0002091  87.0684 273.0751 14.34217895408745
IRIDIUM 140             
1 43252U 18030D   26018.97036220  .00000160  00000+0  50178-4 0  9995
2 43252  86.3987 352.8100 0002291  84.1228 276.0229 14.34218310408802
IRIDIUM 145             
1 43253U 18030E   26018.95767596  .00000132  00000+0  40068-4 0  9997
2 43253  86.3986 352.7878 0002219  77.3655 282.7788 14.34217806408736
IRIDIUM 146             
1 43254U 18030F   26018.93865006  .00000115  00000+0  33838-4 0  9999
2 43254  86.3985 352.8084 0002169  82.9565 277.1877 14.34218445408740
IRIDIUM 148             
1 43255U 18030G   26018.97670550  .00000065  00000+0  16088-4 0  9994
2 43255  86.3990 352.8336 0002045  85.9197 274.2232 14.34218138408780
IRIDIUM 142             
1 43256U 18030H   26018.94499972  .00000235  00000+0  76960-4 0  9993
2 43256  86.3985 352.7411 0002212  76.7925 283.3518 14.34219830408745
